{
  "links" : {
    "next" : "https://api.nasa.gov/neo/rest/v1/feed?start_date=2002-08-23&end_date=2002-08-23&detailed=true&api_key=t0TVs3DtDT2H8Oy2Zy8m2eVrNsAVKAexjcZXUckd",
    "prev" : "https://api.nasa.gov/neo/rest/v1/feed?start_date=2002-08-21&end_date=2002-08-21&detailed=true&api_key=t0TVs3DtDT2H8Oy2Zy8m2eVrNsAVKAexjcZXUckd",
    "self" : "https://api.nasa.gov/neo/rest/v1/feed?start_date=2002-08-22&end_date=2002-08-22&detailed=true&api_key=t0TVs3DtDT2H8Oy2Zy8m2eVrNsAVKAexjcZXUckd"
  },
  "element_count" : 5,
  "near_earth_objects" : {
    "2002-08-22" : [ {
      "links" : {
        "self" : "https://api.nasa.gov/neo/rest/v1/neo/3132128?api_key=t0TVs3DtDT2H8Oy2Zy8m2eVrNsAVKAexjcZXUckd"
      },
      "neo_reference_id" : "3132128",
      "name" : "(2002 PR1)",
      "nasa_jpl_url" : "http://ssd.jpl.nasa.gov/sbdb.cgi?sstr=3132128",
      "absolute_magnitude_h" : 21.9,
      "estimated_diameter" : {
        "kilometers" : {
          "estimated_diameter_min" : 0.1108038821,
          "estimated_diameter_max" : 0.2477650126
        },
        "meters" : {
          "estimated_diameter_min" : 110.8038821264,
          "estimated_diameter_max" : 247.7650126055
        },
        "miles" : {
          "estimated_diameter_min" : 0.068850319,
          "estimated_diameter_max" : 0.1539539936
        },
        "feet" : {
          "estimated_diameter_min" : 363.5298086356,
          "estimated_diameter_max" : 812.8773639568
        }
      },
      "is_potentially_hazardous_asteroid" : true,
      "close_approach_data" : [ {
        "close_approach_date" : "2002-08-22",
        "epoch_date_close_approach" : 1029999600000,
        "relative_velocity" : {
          "kilometers_per_second" : "9.8762322491",
          "kilometers_per_hour" : "35554.4360968029",
          "miles_per_hour" : "22092.1439180385"
        },
        "miss_distance" : {
          "astronomical" : "0.0631318391",
          "lunar" : "24.5582847595",
          "kilometers" : "9444389",
          "miles" : "5868471"
        },
        "orbiting_body" : "Earth"
      } ],
      "orbital_data" : {
        "orbit_id" : "23",
        "orbit_determination_date" : "2017-04-06 09:14:59",
        "orbit_uncertainty" : "6",
        "minimum_orbit_intersection" : ".0440339",
        "jupiter_tisserand_invariant" : "3.198",
        "epoch_osculation" : "2458000.5",
        "eccentricity" : ".5873591091295379",
        "semi_major_axis" : "2.49618063534591",
        "inclination" : "6.584502128174102",
        "ascending_node_longitude" : "148.3057147038818",
        "orbital_period" : "1440.49727636903",
        "perihelion_distance" : "1.030026201142732",
        "perihelion_argument" : "208.3098119441792",
        "aphelion_distance" : "3.962335069549088",
        "perihelion_time" : "2458298.025709647985",
        "mean_anomaly" : "285.644249919543",
        "mean_motion" : ".2499136971000939",
        "equinox" : "J2000"
      }
    }, {
      "links" : {
        "self" : "https://api.nasa.gov/neo/rest/v1/neo/2363305?api_key=t0TVs3DtDT2H8Oy2Zy8m2eVrNsAVKAexjcZXUckd"
      },
      "neo_reference_id" : "2363305",
      "name" : "363305 (2002 NV16)",
      "nasa_jpl_url" : "http://ssd.jpl.nasa.gov/sbdb.cgi?sstr=2363305",
      "absolute_magnitude_h" : 21.4,
      "estimated_diameter" : {
        "kilometers" : {
          "estimated_diameter_min" : 0.1394938229,
          "estimated_diameter_max" : 0.3119176705
        },
        "meters" : {
          "estimated_diameter_min" : 139.4938229344,
          "estimated_diameter_max" : 311.9176705226
        },
        "miles" : {
          "estimated_diameter_min" : 0.0866774163,
          "estimated_diameter_max" : 0.1938165949
        },
        "feet" : {
          "estimated_diameter_min" : 457.6569140361,
          "estimated_diameter_max" : 1023.3519701574
        }
      },
      "is_potentially_hazardous_asteroid" : true,
      "close_approach_data" : [ {
        "close_approach_date" : "2002-08-22",
        "epoch_date_close_approach" : 1029999600000,
        "relative_velocity" : {
          "kilometers_per_second" : "4.6064244148",
          "kilometers_per_hour" : "16583.1278934058",
          "miles_per_hour" : "10304.1107735443"
        },
        "miss_distance" : {
          "astronomical" : "0.038065769",
          "lunar" : "14.8075838089",
          "kilometers" : "5694558",
          "miles" : "3538434.25"
        },
        "orbiting_body" : "Earth"
      } ],
      "orbital_data" : {
        "orbit_id" : "91",
        "orbit_determination_date" : "2017-04-28 06:20:42",
        "orbit_uncertainty" : "0",
        "minimum_orbit_intersection" : ".0280978",
        "jupiter_tisserand_invariant" : "5.155",
        "epoch_osculation" : "2458000.5",
        "eccentricity" : ".2198566349700501",
        "semi_major_axis" : "1.237248715291631",
        "inclination" : "3.501435128556312",
        "ascending_node_longitude" : "183.3358594755584",
        "orbital_period" : "502.6711313104487",
        "perihelion_distance" : ".9652313761265954",
        "perihelion_argument" : "179.2341676310575",
        "aphelion_distance" : "1.509266054456666",
        "perihelion_time" : "2458069.665932210367",
        "mean_anomaly" : "310.4651569489989",
        "mean_motion" : ".7161740103544253",
        "equinox" : "J2000"
      }
    }, {
      "links" : {
        "self" : "https://api.nasa.gov/neo/rest/v1/neo/3558387?api_key=t0TVs3DtDT2H8Oy2Zy8m2eVrNsAVKAexjcZXUckd"
      },
      "neo_reference_id" : "3558387",
      "name" : "(2011 EG17)",
      "nasa_jpl_url" : "http://ssd.jpl.nasa.gov/sbdb.cgi?sstr=3558387",
      "absolute_magnitude_h" : 20.6,
      "estimated_diameter" : {
        "kilometers" : {
          "estimated_diameter_min" : 0.2016299194,
          "estimated_diameter_max" : 0.4508582062
        },
        "meters" : {
          "estimated_diameter_min" : 201.6299194428,
          "estimated_diameter_max" : 450.8582061718
        },
        "miles" : {
          "estimated_diameter_min" : 0.1252869847,
          "estimated_diameter_max" : 0.2801502144
        },
        "feet" : {
          "estimated_diameter_min" : 661.5155049046,
          "estimated_diameter_max" : 1479.1936371367
        }
      },
      "is_potentially_hazardous_asteroid" : true,
      "close_approach_data" : [ {
        "close_approach_date" : "2002-08-22",
        "epoch_date_close_approach" : 1029999600000,
        "relative_velocity" : {
          "kilometers_per_second" : "21.3005293606",
          "kilometers_per_hour" : "76681.9056980844",
          "miles_per_hour" : "47647.1541266792"
        },
        "miss_distance" : {
          "astronomical" : "0.27076866",
          "lunar" : "105.3290100098",
          "kilometers" : "40506416",
          "miles" : "25169520"
        },
        "orbiting_body" : "Earth"
      } ],
      "orbital_data" : {
        "orbit_id" : "26",
        "orbit_determination_date" : "2017-04-06 08:54:13",
        "orbit_uncertainty" : "1",
        "minimum_orbit_intersection" : ".0439084",
        "jupiter_tisserand_invariant" : "4.649",
        "epoch_osculation" : "2458000.5",
        "eccentricity" : ".4187310676789489",
        "semi_major_axis" : "1.379914815489344",
        "inclination" : "20.11205823947074",
        "ascending_node_longitude" : "170.1616467522472",
        "orbital_period" : "592.0751628373572",
        "perihelion_distance" : ".8021016114934914",
        "perihelion_argument" : "241.4871577635625",
        "aphelion_distance" : "1.957728019485197",
        "perihelion_time" : "2457885.589286408348",
        "mean_anomaly" : "69.86926574448853",
        "mean_motion" : ".6080309099182596",
        "equinox" : "J2000"
      }
    } ]
  }
}